STARLINK-1942
1 26794C 20074BH  21325.14118456  .00003644  00000-0  24422-3 0  3253
2 26794  53.0511 167.6044 0001828  80.0350 224.7418 15.06386065    19
